{
  "links" : {
    "next" : "https://api.nasa.gov/neo/rest/v1/neo/browse?page=41&size=20&api_key=jqAGvNAwUIBu4fl9FSOjdm3V4F7hIglRzI6pdX9d",
    "prev" : "https://api.nasa.gov/neo/rest/v1/neo/browse?page=39&size=20&api_key=jqAGvNAwUIBu4fl9FSOjdm3V4F7hIglRzI6pdX9d",
    "self" : "https://api.nasa.gov/neo/rest/v1/neo/browse?page=40&size=20&api_key=jqAGvNAwUIBu4fl9FSOjdm3V4F7hIglRzI6pdX9d"
  },
  "page" : {
    "size" : 20,
    "total_elements" : 20750,
    "total_pages" : 1038,
    "number" : 40
  },
  "near_earth_objects" : [ {
    "links" : {
      "self" : "https://api.nasa.gov/neo/rest/v1/neo/3404769?api_key=jqAGvNAwUIBu4fl9FSOjdm3V4F7hIglRzI6pdX9d"
    },
    "neo_reference_id" : "3404769",
    "name" : "(2008 ES5)",
    "designation" : "2008 ES5",
    "nasa_jpl_url" : "http://ssd.jpl.nasa.gov/sbdb.cgi?sstr=3404769",
    "absolute_magnitude_h" : 24.7,
    "estimated_diameter" : {
      "kilometers" : {
        "estimated_diameter_min" : 0.0305179233,
        "estimated_diameter_max" : 0.0682401509
      },
      "meters" : {
        "estimated_diameter_min" : 30.5179232594,
        "estimated_diameter_max" : 68.2401509401
      },
      "miles" : {
        "estimated_diameter_min" : 0.0189629525,
        "estimated_diameter_max" : 0.0424024508
      },
      "feet" : {
        "estimated_diameter_min" : 100.1244233463,
        "estimated_diameter_max" : 223.8850168104
      }
    },
    "is_potentially_hazardous_asteroid" : false,
    "close_approach_data" : [ {
      "close_approach_date" : "2008-02-24",
      "epoch_date_close_approach" : 1203840000000,
      "relative_velocity" : {
        "kilometers_per_second" : "17.6353930396",
        "kilometers_per_hour" : "63487.4149426151",
        "miles_per_hour" : "39448.6106903155"
      },
      "miss_distance" : {
        "astronomical" : "0.0296322592",
        "lunar" : "11.5269489288",
        "kilometers" : "4432923",
        "miles" : "2754490.5"
      },
      "orbiting_body" : "Earth"
    } ],
    "orbital_data" : {
      "orbit_id" : "8",
      "orbit_determination_date" : "2017-04-06 09:04:09",
      "first_observation_date" : "2008-03-03",
      "last_observation_date" : "2008-03-11",
      "data_arc_in_days" : 8,
      "observations_used" : 21,
      "orbit_uncertainty" : "9",
      "minimum_orbit_intersection" : ".0174636",
      "jupiter_tisserand_invariant" : "3.594",
      "epoch_osculation" : "2454530.5",
      "eccentricity" : ".6394604231116187",
      "semi_major_axis" : "1.961859885278731",
      "inclination" : "3.922681124208064",
      "ascending_node_longitude" : "139.0374699474345",
      "orbital_period" : "1003.691872837047",
      "perihelion_distance" : ".707328132952682",
      "perihelion_argument" : "300.7149394201143",
      "aphelion_distance" : "3.21639163760478",
      "perihelion_time" : "2454476.643216696618",
      "mean_anomaly" : "19.31712561785912",
      "mean_motion" : ".3586758145031301",
      "equinox" : "J2000",
      "orbit_class" : {
        "orbit_class_type" : "APO",
        "orbit_class_range" : "a (semi-major axis) > 1.0 AU; q (perihelion) < 1.017 AU",
        "orbit_class_description" : "Near-Earth asteroid orbits which cross the Earth’s orbit similar to that of 1862 Apollo"
      }
    },
    "is_sentry_object" : false
  }, {
    "links" : {
      "self" : "https://api.nasa.gov/neo/rest/v1/neo/3405069?api_key=jqAGvNAwUIBu4fl9FSOjdm3V4F7hIglRzI6pdX9d"
    },
    "neo_reference_id" : "3405069",
    "name" : "(2008 EM6)",
    "designation" : "2008 EM6",
    "nasa_jpl_url" : "http://ssd.jpl.nasa.gov/sbdb.cgi?sstr=3405069",
    "absolute_magnitude_h" : 25.7,
    "estimated_diameter" : {
      "kilometers" : {
        "estimated_diameter_min" : 0.0192555078,
        "estimated_diameter_max" : 0.0430566244
      },
      "meters" : {
        "estimated_diameter_min" : 19.2555078188,
        "estimated_diameter_max" : 43.0566244241
      },
      "miles" : {
        "estimated_diameter_min" : 0.0119648141,
        "estimated_diameter_max" : 0.0267541378
      },
      "feet" : {
        "estimated_diameter_min" : 63.1742402722,
        "estimated_diameter_max" : 141.2618956756
      }
    },
    "is_potentially_hazardous_asteroid" : false,
    "close_approach_data" : [ {
      "close_approach_date" : "2008-03-18",
      "epoch_date_close_approach" : 1205823600000,
      "relative_velocity" : {
        "kilometers_per_second" : "11.1805976957",
        "kilometers_per_hour" : "40250.1517044365",
        "miles_per_hour" : "25009.8789854594"
      },
      "miss_distance" : {
        "astronomical" : "0.046964507",
        "lunar" : "18.2691936493",
        "kilometers" : "7025790.5",
        "miles" : "4365623.5"
      },
      "orbiting_body" : "Earth"
    } ],
    "orbital_data" : {
      "orbit_id" : "6",
      "orbit_determination_date" : "2017-04-06 09:04:07",
      "first_observation_date" : "2008-03-05",
      "last_observation_date" : "2008-03-06",
      "data_arc_in_days" : 1,
      "observations_used" : 18,
      "orbit_uncertainty" : "9",
      "minimum_orbit_intersection" : ".045577",
      "jupiter_tisserand_invariant" : "3.854",
      "epoch_osculation" : "2454531.5",
      "eccentricity" : ".4893551296124316",
      "semi_major_axis" : "1.838700271558512",
      "inclination" : "9.149709092184073",
      "ascending_node_longitude" : "165.2056212573867",
      "orbital_period" : "910.6779834279739",
      "perihelion_distance" : ".938922861851583",
      "perihelion_argument" : "54.64693070605941",
      "aphelion_distance" : "2.738477681265441",
      "perihelion_time" : "2454576.771573754779",
      "mean_anomaly" : "342.1036998277125",
      "mean_motion" : ".3953098752260246",
      "equinox" : "J2000",
      "orbit_class" : {
        "orbit_class_type" : "APO",
        "orbit_class_range" : "a (semi-major axis) > 1.0 AU; q (perihelion) < 1.017 AU",
        "orbit_class_description" : "Near-Earth asteroid orbits which cross the Earth’s orbit similar to that of 1862 Apollo"
      }
    },
    "is_sentry_object" : false
  }, {
    "links" : {
      "self" : "https://api.nasa.gov/neo/rest/v1/neo/3405149?api_key=jqAGvNAwUIBu4fl9FSOjdm3V4F7hIglRzI6pdX9d"
    },
    "neo_reference_id" : "3405149",
    "name" : "(2008 EB8)",
    "designation" : "2008 EB8",
    "nasa_jpl_url" : "http://ssd.jpl.nasa.gov/sbdb.cgi?sstr=3405149",
    "absolute_magnitude_h" : 22.6,
    "estimated_diameter" : {
      "kilometers" : {
        "estimated_diameter_min" : 0.0802703167,
        "estimated_diameter_max" : 0.1794898848
      },
      "meters" : {
        "estimated_diameter_min" : 80.2703167283,
        "estimated_diameter_max" : 179.4898847799
      },
      "miles" : {
        "estimated_diameter_min" : 0.049877647,
        "estimated_diameter_max" : 0.1115298092
      },
      "feet" : {
        "estimated_diameter_min" : 263.3540659348,
        "estimated_diameter_max" : 588.8775935812
      }
    },
    "is_potentially_hazardous_asteroid" : false,
    "close_approach_data" : [ {
      "close_approach_date" : "2008-02-27",
      "epoch_date_close_approach" : 1204099200000,
      "relative_velocity" : {
        "kilometers_per_second" : "12.0422189385",
        "kilometers_per_hour" : "43351.988178604",
        "miles_per_hour" : "26937.2395435331"
      },
      "miss_distance" : {
        "astronomical" : "0.3275353782",
        "lunar" : "127.4112701416",
        "kilometers" : "48998596",
        "miles" : "30446316"
      },
      "orbiting_body" : "Earth"
    } ],
    "orbital_data" : {
      "orbit_id" : "7",
      "orbit_determination_date" : "2017-04-06 09:04:06",
      "first_observation_date" : "2008-03-06",
      "last_observation_date" : "2008-03-11",
      "data_arc_in_days" : 5,
      "observations_used" : 23,
      "orbit_uncertainty" : "9",
      "minimum_orbit_intersection" : ".311515",
      "jupiter_tisserand_invariant" : "3.837",
      "epoch_osculation" : "2454533.5",
      "eccentricity" : ".3576848843817418",
      "semi_major_axis" : "1.849224788198751",
      "inclination" : "23.1867255319349",
      "ascending_node_longitude" : "353.8385278122772",
      "orbital_period" : "918.5080912703426",
      "perihelion_distance" : "1.18778503363603",
      "perihelion_argument" : "120.8860514423928",
      "aphelion_distance" : "2.510664542761472",
      "perihelion_time" : "2454468.689742849085",
      "mean_anomaly" : "25.40172786290919",
      "mean_motion" : ".3919399332695067",
      "equinox" : "J2000",
      "orbit_class" : {
        "orbit_class_type" : "AMO",
        "orbit_class_range" : "1.017 AU < q (perihelion) < 1.3 AU",
        "orbit_class_description" : "Near-Earth asteroid orbits similar to that of 1221 Amor"
      }
    },
    "is_sentry_object" : false
  } ]
}